OBJECT_NAME,OBJECT_ID,EPOCH,MEAN_MOTION,ECCENTRICITY,INCLINATION,RA_OF_ASC_NODE,ARG_OF_PERICENTER,MEAN_ANOMALY,EPHEMERIS_TYPE,CLASSIFICATION_TYPE,NORAD_CAT_ID,ELEMENT_SET_NO,REV_AT_EPOCH,BSTAR,MEAN_MOTION_DOT,MEAN_MOTION_DDOT
STARLINK-32841,2025-022M,2026-06-25T16:34:58.396224,15.34405423,.0000741,53.1598,347.3943,65.5917,294.5163,0,U,62865,999,7843,.67282E-3,.22428E-3,0
STARLINK-32695,2025-022N,2026-06-25T16:16:06.616704,15.34402852,.0001206,53.1599,345.8922,102.9793,257.1344,0,U,62866,999,7846,.44415E-3,.14661E-3,0
STARLINK-32846,2025-022P,2026-06-25T16:41:01.710816,15.34403620,.0001084,53.1601,347.4003,61.5306,298.5806,0,U,62867,999,7844,.65892E-3,.21954E-3,0
STARLINK-32822,2025-022Q,2026-06-25T16:16:47.546112,15.34420259,.0001142,53.1609,347.3132,81.2543,278.8588,0,U,62868,999,7844,.12893E-2,.43467E-3,0
STARLINK-32813,2025-022R,2026-06-25T19:54:40.481280,15.34421342,.0001215,53.1591,346.8365,105.9400,254.1736,0,U,62869,999,7846,.10605E-2,.3565E-3,0
STARLINK-32861,2025-022S,2026-06-25T16:19:08.499936,15.34417680,.0000805,53.1590,345.9088,101.9243,258.1850,0,U,62870,999,7846,.12103E-2,.40763E-3,0
STARLINK-32814,2025-022T,2026-06-25T16:07:41.440224,15.34431890,.0000171,53.1591,347.2796,299.0839,61.0146,0,U,62871,999,7844,.11224E-2,.37777E-3,0
STARLINK-32849,2025-022U,2026-06-25T16:10:43.871232,15.34412079,.0001152,53.1609,347.2941,82.0943,278.0190,0,U,62872,999,7844,.85338E-3,.28577E-3,0
STARLINK-32833,2025-022V,2026-06-25T16:31:56.334144,15.34411123,.0000975,53.1592,347.3798,84.2934,275.8179,0,U,62873,999,7844,.60269E-3,.20048E-3,0
STARLINK-32793,2025-022W,2026-06-25T20:21:56.739168,15.34417631,.0000892,53.1596,346.9566,77.1965,282.9137,0,U,62874,999,7846,.9687E-3,.32513E-3,0
STARLINK-32834,2025-022X,2026-06-25T16:13:45.624864,15.34420622,.0000841,53.1595,347.3001,115.6405,244.4684,0,U,62875,999,7844,.11148E-2,.37502E-3,0
STARLINK-11371 [DTC],2025-024A,2026-06-25T06:35:18.268800,15.70991709,.0002873,43.0016,253.2652,291.9034,68.1528,0,U,62879,999,8038,.15529E-2,.205127E-2,0
STARLINK-11352 [DTC],2025-024B,2026-06-25T16:22:42.058272,15.70908534,.0001374,43.0005,250.2794,253.1645,106.9072,0,U,62880,999,8045,.18396E-2,.243343E-2,0
STARLINK-11382 [DTC],2025-024C,2026-06-25T13:50:09.848832,15.70861248,.0002181,43.0002,251.2188,272.1924,87.8694,0,U,62881,999,8043,.15399E-2,.202214E-2,0
STARLINK-11432 [DTC],2025-024D,2026-06-25T14:05:27.373632,15.70883221,.0002177,43.0015,251.3031,262.0910,97.9710,0,U,62882,999,8043,.14451E-2,.189618E-2,0
STARLINK-11419 [DTC],2025-024E,2026-06-25T13:42:31.161600,15.70887849,.0002438,43.0020,251.1754,286.8110,73.2490,0,U,62883,999,8043,.13643E-2,.178794E-2,0
STARLINK-11437 [DTC],2025-024F,2026-06-25T13:57:48.790080,15.70845313,.0001443,43.0003,251.2587,255.5398,104.5310,0,U,62884,999,8043,.12019E-3,.15005E-3,0
STARLINK-11442 [DTC],2025-024G,2026-06-25T16:07:24.828096,15.70872533,.0001161,43.0004,250.1934,279.6286,80.4451,0,U,62885,999,8045,.19482E-2,.257789E-2,0
STARLINK-11365 [DTC],2025-024H,2026-06-25T16:15:02.575296,15.70967129,.0005426,43.0017,250.2366,273.5807,86.4440,0,U,62886,999,8045,.15244E-2,.201133E-2,0
STARLINK-11436 [DTC],2025-024J,2026-06-25T15:06:26.546688,15.70787881,.0001446,42.9998,250.7475,257.7888,102.2817,0,U,62887,999,8044,.39607E-2,.541123E-2,0
STARLINK-11438 [DTC],2025-024K,2026-06-25T16:16:21.302112,15.70959548,.0005256,43.0022,250.2429,273.8602,86.1664,0,U,62888,999,8045,.14762E-2,.194537E-2,0
STARLINK-11391 [DTC],2025-024L,2026-06-25T14:53:49.890048,15.72042967,.0001397,42.9948,250.6627,334.0414,26.0383,0,U,62889,999,8044,.14107E-2,.194505E-2,0
STARLINK-11431 [DTC],2025-024M,2026-06-25T15:59:57.117984,15.70884604,.0001486,43.0004,251.0444,269.7081,90.3616,0,U,62890,999,8044,.15361E-2,.201891E-2,0
STARLINK-11435 [DTC],2025-024N,2026-06-25T14:20:44.839680,15.70845838,.0001446,43.0010,251.3850,258.7529,101.3176,0,U,62891,999,8043,.14021E-2,.183538E-2,0
STARLINK-32878,2025-024P,2026-06-25T10:35:30.404832,15.27598210,.0001505,43.0030,76.9722,264.8894,95.1786,0,U,62892,999,7874,.89125E-3,.24358E-3,0
STARLINK-32892,2025-024Q,2026-06-25T18:31:51.705408,15.27611456,.0001561,43.0040,75.1524,277.4567,82.6107,0,U,62893,999,7879,.78824E-3,.21513E-3,0
STARLINK-32909,2025-024R,2026-06-25T17:06:55.329696,15.27622651,.0002942,43.0053,75.5688,274.0410,86.0105,0,U,62894,999,7878,.78496E-3,.2143E-3,0
STARLINK-32901,2025-024S,2026-06-25T18:00:22.353408,15.27579497,.000188,43.0021,74.9854,261.1775,98.8864,0,U,62895,999,7879,.21992E-3,.5794E-4,0
STARLINK-32890,2025-024T,2026-06-25T17:17:49.591104,15.27618011,.0001392,42.9988,74.7601,173.3739,186.7132,0,U,62896,999,7879,.92244E-3,.25238E-3,0
STARLINK-32893,2025-024U,2026-06-25T17:34:28.693920,15.27617467,.0004077,43.0002,74.8467,285.5052,74.5350,0,U,62897,999,7879,.8022E-3,.21907E-3,0
STARLINK-32902,2025-024V,2026-06-25T17:28:55.530336,15.27662578,.0001739,42.9994,74.8162,265.4149,94.6504,0,U,62898,999,7879,.12782E-2,.35167E-3,0
STARLINK-32661,2025-024W,2026-06-25T18:05:56.078592,15.27582722,.0000457,42.9988,75.0167,278.0024,82.0775,0,U,62899,999,7879,.81953E-3,.2236E-3,0
STARLINK-11552 [DTC],2025-027A,2026-06-25T14:35:22.653312,15.71063231,.0002305,43.0004,57.2803,238.8058,121.2583,0,U,62907,999,8016,.14425E-2,.190739E-2,0
STARLINK-11561 [DTC],2025-027B,2026-06-25T17:00:15.945696,15.70918968,.0002117,42.9999,56.2994,260.3462,99.7167,0,U,62908,999,8014,.17842E-2,.23589E-2,0
STARLINK-11567 [DTC],2025-027C,2026-06-25T16:29:52.077120,15.70922123,.0002064,42.9996,57.0235,250.3616,109.7028,0,U,62909,999,8013,.17854E-2,.236083E-2,0
STARLINK-11569 [DTC],2025-027D,2026-06-25T17:15:33.568128,15.70846386,.0001916,43.0018,56.3841,248.3144,111.7520,0,U,62910,999,8014,.16916E-2,.222578E-2,0
STARLINK-11537 [DTC],2025-027E,2026-06-25T15:59:17.411136,15.70876959,.0001971,43.0008,56.8523,258.6788,101.3858,0,U,62911,999,8017,.14087E-2,.184666E-2,0
STARLINK-11565 [DTC],2025-027F,2026-06-25T13:41:51.821952,15.71183196,.0001795,42.9987,56.9780,285.6336,74.4334,0,U,62912,999,8012,.16791E-2,.224122E-2,0
STARLINK-11564 [DTC],2025-027G,2026-06-25T17:46:04.759104,15.70791263,.0003033,43.0013,56.5527,287.7385,72.3151,0,U,62913,999,8014,-.39216E-3,-.50375E-3,0
STARLINK-11566 [DTC],2025-027H,2026-06-25T17:53:47.476032,15.70825718,.0002457,43.0019,56.5943,276.9457,83.1131,0,U,62914,999,8018,.19131E-2,.25249E-2,0
STARLINK-11555 [DTC],2025-027J,2026-06-25T16:23:32.222112,15.70864912,.0001566,43.0011,56.9869,270.6645,89.4043,0,U,62915,999,8017,.23312E-3,.29602E-3,0
STARLINK-11430 [DTC],2025-027K,2026-06-25T13:34:23.888928,15.70876901,.000156,43.0005,57.8294,264.2131,95.8559,0,U,62916,999,8015,.15499E-2,.203687E-2,0
STARLINK-11560 [DTC],2025-027L,2026-06-25T15:51:39.178368,15.70937129,.0001281,43.0001,56.8066,231.0561,129.0192,0,U,62917,999,8013,.177E-2,.234132E-2,0
STARLINK-11562 [DTC],2025-027M,2026-06-25T17:07:54.975936,15.70840722,.0001895,43.0015,56.3375,263.9231,96.1421,0,U,62918,999,8018,.35494E-2,.482455E-2,0
STARLINK-11457 [DTC],2025-027N,2026-06-25T13:49:30.226656,15.70879181,.0001717,43.0013,57.0189,269.9964,90.0707,0,U,62919,999,8012,.14168E-2,.185771E-2,0
STARLINK-32921,2025-027P,2026-06-25T13:49:25.472064,15.27619303,.0002297,43.0015,239.4625,264.5389,95.5201,0,U,62920,999,7804,.67643E-3,.18421E-3,0
STARLINK-32917,2025-027Q,2026-06-25T14:09:47.513664,15.27620818,.0002123,42.9997,239.5591,278.3873,81.6738,0,U,62921,999,7804,.74837E-3,.20414E-3,0
STARLINK-32916,2025-027R,2026-06-25T13:54:58.723776,15.27615129,.0002149,43.0013,239.4832,274.7565,85.3041,0,U,62922,999,7804,.99379E-3,.27216E-3,0
STARLINK-32905,2025-027S,2026-06-25T12:52:16.810752,15.27591634,.0001519,42.9982,240.0161,274.3292,85.7386,0,U,62923,999,7803,.42234E-3,.11382E-3,0
STARLINK-32871,2025-027T,2026-06-25T14:04:13.862784,15.27599793,.0001761,43.0018,239.5253,267.9261,92.1389,0,U,62924,999,7804,.60238E-3,.16361E-3,0
STARLINK-32920,2025-027U,2026-06-25T15:32:50.491968,15.27597816,.0001218,42.9992,239.1302,255.2783,104.7934,0,U,62925,999,7805,.76159E-3,.20766E-3,0
STARLINK-32922,2025-027V,2026-06-25T12:46:43.622112,15.27606885,.0001639,42.9979,239.9826,271.4536,88.6128,0,U,62926,999,7803,.81423E-3,.2223E-3,0
STARLINK-32891,2025-027W,2026-06-25T12:55:58.952064,15.27596558,.0001434,43.0019,240.0352,273.2723,86.7965,0,U,62927,999,7815,.88407E-3,.24157E-3,0
STARLINK-32728,2025-029A,2026-06-25T17:49:26.234400,15.34413700,.0001799,53.1596,87.5404,94.2284,265.8924,0,U,62948,999,7794,.98888E-3,.33197E-3,0
STARLINK-32857,2025-029B,2026-06-25T18:04:26.639040,15.34422924,.0002535,53.1576,86.9015,98.9254,261.2036,0,U,62949,999,7795,.118E-2,.39733E-3,0
STARLINK-32850,2025-029C,2026-06-25T01:19:12.536544,15.31738818,.00011426,53.1566,93.1945,75.7819,284.3310,0,U,62950,999,7777,.1184703E-2,.36623E-3,0
STARLINK-32875,2025-029D,2026-06-25T11:46:13.806912,15.34422238,.0001405,53.1584,88.1001,84.7653,275.3510,0,U,62951,999,7788,.13689E-2,.46191E-3,0
STARLINK-32865,2025-029E,2026-06-24T23:38:31.225632,15.31745142,.0001179,53.1577,93.4681,99.4845,260.6289,0,U,62952,999,7776,.1160064E-2,.35857E-3,0
STARLINK-32884,2025-029F,2026-06-25T01:07:50.648736,15.34429062,.00012483,53.1586,90.3100,68.7350,291.3786,0,U,62953,999,7781,.11260035E-2,.37895E-3,0
STARLINK-32874,2025-029G,2026-06-25T18:07:28.689024,15.34423625,.0001217,53.1582,86.9060,75.0703,285.0434,0,U,62954,999,7792,.19442E-2,.6594E-3,0
STARLINK-32880,2025-029H,2026-06-25T18:12:36.542592,15.31719465,.000191,53.1588,89.7653,88.7987,271.3233,0,U,62955,999,7788,.12428E-2,.38423E-3,0
STARLINK-32815,2025-029J,2026-06-25T17:13:03.723744,15.34415618,.0002052,53.1579,87.3826,139.7770,220.3384,0,U,62956,999,7791,.94688E-3,.31768E-3,0
STARLINK-32879,2025-029K,2026-06-25T18:59:39.202080,15.31710716,.0001641,53.1575,89.9728,104.4692,255.6491,0,U,62957,999,7787,.827E-3,.25394E-3,0
STARLINK-32885,2025-029L,2026-06-25T01:16:55.935552,15.34429051,.00010263,53.1575,90.3460,79.1531,280.9587,0,U,62958,999,7780,.11439326E-2,.38508E-3,0
